{"type": "FeatureCollection", "features": [ {"type": "Feature", "properties": {"norad_id": 66052, "name": "HRC MONOBLOCK CAMERA", "group": "stations", "lat": 51.59693424764117, "lon": 161.1493000409461, "alt_km": 395.85010069046893, "timestamp": "2025-12-27T04:40:44.253900+00:00", "meta": {"OBJECT_NAME": "HRC MONOBLOCK CAMERA", "OBJECT_ID": "1998-067XR", "EPOCH": "2025-12-26T22:07:12.090144", "MEAN_MOTION": 15.55129396, "ECCENTRICITY": 0.00018933, "INCLINATION": 51.6303, "RA_OF_ASC_NODE": 70.7432, "ARG_OF_PERICENTER": 255.8095, "MEAN_ANOMALY": 104.2686, "EPHEMERIS_TYPE": 0, "CLASSIFICATION_TYPE": "U", "NORAD_CAT_ID": 66052, "ELEMENT_SET_NO": 999, "REV_AT_EPOCH": 1104, "BSTAR": 0.00056122831, "MEAN_MOTION_DOT": 0.0003824, "MEAN_MOTION_DDOT": 0}, "tle": {"line1": "1 66052U 98067XR  25360.92166771  .00038240  00000+0  56123-3 0  9990", "line2": "2 66052  51.6303  70.7432 0001893 255.8095 104.2686 15.55129396 11046"}}, "geometry": {"type": "Point", "coordinates": [161.1493000409461, 51.59693424764117]}}, {"type": "Feature", "properties": {"norad_id": 66174, "name": "HTV-X1", "group": "stations", "lat": 51.45427695128817, "lon": 154.8015183656428, "alt_km": 411.65920420488237, "timestamp": "2025-12-27T04:40:44.253911+00:00", "meta": {"OBJECT_NAME": "HTV-X1", "OBJECT_ID": "2025-241A", "EPOCH": "2025-12-26T20:34:16.428576", "MEAN_MOTION": 15.49855582, "ECCENTRICITY": 0.00032301, "INCLINATION": 51.6319, "RA_OF_ASC_NODE": 72.5609, "ARG_OF_PERICENTER": 307.0606, "MEAN_ANOMALY": 53.0087, "EPHEMERIS_TYPE": 0, "CLASSIFICATION_TYPE": "U", "NORAD_CAT_ID": 66174, "ELEMENT_SET_NO": 999, "REV_AT_EPOCH": 51, "BSTAR": 0.00027091986, "MEAN_MOTION_DOT": 0.00014958, "MEAN_MOTION_DDOT": 0}, "tle": {"line1": "1 66174U 25241A   25360.85713459  .00014958  00000+0  27092-3 0  9995", "line2": "2 66174  51.6319  72.5609 0003230 307.0606  53.0087 15.49855582   511"}}, "geometry": {"type": "Point", "coordinates": [154.8015183656428, 51.45427695128817]}}, {"type": "Feature", "properties": {"norad_id": 66515, "name": "SZ-21 MODULE", "group": "stations", "lat": 32.88313838902159, "lon": 60.77071248223736, "alt_km": 375.2775679420147, "timestamp": "2025-12-27T04:40:44.253921+00:00", "meta": {"OBJECT_NAME": "SZ-21 MODULE", "OBJECT_ID": "2025-246C", "EPOCH": "2025-12-25T04:36:53.601984", "MEAN_MOTION": 15.63137537, "ECCENTRICITY": 0.0004589, "INCLINATION": 41.4767, "RA_OF_ASC_NODE": 300.0489, "ARG_OF_PERICENTER": 327.9877, "MEAN_ANOMALY": 32.0683, "EPHEMERIS_TYPE": 0, "CLASSIFICATION_TYPE": "U", "NORAD_CAT_ID": 66515, "ELEMENT_SET_NO": 999, "REV_AT_EPOCH": 639, "BSTAR": 0.00031272, "MEAN_MOTION_DOT": 0.00029146, "MEAN_MOTION_DDOT": 0}, "tle": {"line1": "1 66515U 25246C   25359.19228706  .00029146  00000+0  31272-3 0  9990", "line2": "2 66515  41.4767 300.0489 0004589 327.9877  32.0683 15.63137537  6398"}}, "geometry": {"type": "Point", "coordinates": [60.77071248223736, 32.88313838902159]}}, {"type": "Feature", "properties": {"norad_id": 66645, "name": "SHENZHOU-22", "group": "stations", "lat": 25.011706579103926, "lon": -39.19562915233765, "alt_km": 386.9389991389189, "timestamp": "2025-12-27T04:40:44.253931+00:00", "meta": {"OBJECT_NAME": "SHENZHOU-22", "OBJECT_ID": "2025-272A", "EPOCH": "2025-12-26T22:21:45.161280", "MEAN_MOTION": 15.59735336, "ECCENTRICITY": 0.00087329, "INCLINATION": 41.4675, "RA_OF_ASC_NODE": 290.5114, "ARG_OF_PERICENTER": 154.941, "MEAN_ANOMALY": 205.1854, "EPHEMERIS_TYPE": 0, "CLASSIFICATION_TYPE": "U", "NORAD_CAT_ID": 66645, "ELEMENT_SET_NO": 999, "REV_AT_EPOCH": 26598, "BSTAR": 0.00023104085, "MEAN_MOTION_DOT": 0.00018761, "MEAN_MOTION_DDOT": 0}, "tle": {"line1": "1 66645U 25272A   25360.93177270  .00018761  00000+0  23104-3 0  9992", "line2": "2 66645  41.4675 290.5114 0008732 154.9410 205.1854 15.59735336265984"}}, "geometry": {"type": "Point", "coordinates": [-39.19562915233765, 25.011706579103926]}}, {"type": "Feature", "properties": {"norad_id": 66664, "name": "SOYUZ-MS 28", "group": "stations", "lat": 51.454277112543096, "lon": 154.80152146761367, "alt_km": 411.65920423257376, "timestamp": "2025-12-27T04:40:44.253941+00:00", "meta": {"OBJECT_NAME": "SOYUZ-MS 28", "OBJECT_ID": "2025-275A", "EPOCH": "2025-12-26T20:34:16.428576", "MEAN_MOTION": 15.49855582, "ECCENTRICITY": 0.00032301, "INCLINATION": 51.6319, "RA_OF_ASC_NODE": 72.5609, "ARG_OF_PERICENTER": 307.0606, "MEAN_ANOMALY": 53.0087, "EPHEMERIS_TYPE": 0, "CLASSIFICATION_TYPE": "U", "NORAD_CAT_ID": 66664, "ELEMENT_SET_NO": 999, "REV_AT_EPOCH": 128, "BSTAR": 0.00027091986, "MEAN_MOTION_DOT": 0.00014958, "MEAN_MOTION_DDOT": 0}, "tle": {"line1": "1 66664U 25275A   25360.85713459  .00014958  00000+0  27092-3 0  9996", "line2": "2 66664  51.6319  72.5609 0003230 307.0606  53.0087 15.49855582  1280"}}, "geometry": {"type": "Point", "coordinates": [154.80152146761367, 51.454277112543096]}}, {"type": "Feature", "properties": {"norad_id": 66906, "name": "1998-067XS", "group": "stations", "lat": -1.3192264996369976, "lon": -108.26516832623697, "alt_km": 413.831603252117, "timestamp": "2025-12-27T04:40:44.253953+00:00", "meta": {"OBJECT_NAME": "1998-067XS", "OBJECT_ID": "1998-067XS", "EPOCH": "2025-12-26T15:31:52.021632", "MEAN_MOTION": 15.5132596, "ECCENTRICITY": 0.00026732, "INCLINATION": 51.6319, "RA_OF_ASC_NODE": 73.4106, "ARG_OF_PERICENTER": 274.6449, "MEAN_ANOMALY": 85.4236, "EPHEMERIS_TYPE": 0, "CLASSIFICATION_TYPE": "U", "NORAD_CAT_ID": 66906, "ELEMENT_SET_NO": 999, "REV_AT_EPOCH": 377, "BSTAR": 0.00048784884, "MEAN_MOTION_DOT": 0.0002883, "MEAN_MOTION_DDOT": 0}, "tle": {"line1": "1 66906U 98067XS  25360.64712988  .00028830  00000+0  48785-3 0  9993", "line2": "2 66906  51.6319  73.4106 0002673 274.6449  85.4236 15.51325960  3771"}}, "geometry": {"type": "Point", "coordinates": [-108.26516832623697, -1.3192264996369976]}}, {"type": "Feature", "properties": {"norad_id": 66907, "name": "1998-067XT", "group": "stations", "lat": -51.59432187346364, "lon": -21.49733905519554, "alt_km": 409.9785017401091, "timestamp": "2025-12-27T04:40:44.253963+00:00", "meta": {"OBJECT_NAME": "1998-067XT", "OBJECT_ID": "1998-067XT", "EPOCH": "2025-12-26T12:05:04.890048", "MEAN_MOTION": 15.53165234, "ECCENTRICITY": 0.0003816, "INCLINATION": 51.6314, "RA_OF_ASC_NODE": 73.9516, "ARG_OF_PERICENTER": 309.8325, "MEAN_ANOMALY": 50.2329, "EPHEMERIS_TYPE": 0, "CLASSIFICATION_TYPE": "U", "NORAD_CAT_ID": 66907, "ELEMENT_SET_NO": 999, "REV_AT_EPOCH": 375, "BSTAR": 0.00096732, "MEAN_MOTION_DOT": 0.00061851, "MEAN_MOTION_DDOT": 0}, "tle": {"line1": "1 66907U 98067XT  25360.50352882  .00061851  00000+0  96732-3 0  9997", "line2": "2 66907  51.6314  73.9516 0003816 309.8325  50.2329 15.53165234  3750"}}, "geometry": {"type": "Point", "coordinates": [-21.49733905519554, -51.59432187346364]}}, {"type": "Feature", "properties": {"norad_id": 66908, "name": "1998-067XU", "group": "stations", "lat": -51.303417350101526, "lon": -11.014008433384847, "alt_km": 409.54146772258173, "timestamp": "2025-12-27T04:40:44.253975+00:00", "meta": {"OBJECT_NAME": "1998-067XU", "OBJECT_ID": "1998-067XU", "EPOCH": "2025-12-26T18:14:01.549824", "MEAN_MOTION": 15.53257933, "ECCENTRICITY": 0.00038698, "INCLINATION": 51.6313, "RA_OF_ASC_NODE": 72.6614, "ARG_OF_PERICENTER": 309.5614, "MEAN_ANOMALY": 50.5034, "EPHEMERIS_TYPE": 0, "CLASSIFICATION_TYPE": "U", "NORAD_CAT_ID": 66908, "ELEMENT_SET_NO": 999, "REV_AT_EPOCH": 379, "BSTAR": 0.00095802228, "MEAN_MOTION_DOT": 0.00061456, "MEAN_MOTION_DDOT": 0}, "tle": {"line1": "1 66908U 98067XU  25360.75974016  .00061456  00000+0  95802-3 0  9992", "line2": "2 66908  51.6313  72.6614 0003869 309.5614  50.5034 15.53257933  3799"}}, "geometry": {"type": "Point", "coordinates": [-11.014008433384847, -51.303417350101526]}}, {"type": "Feature", "properties": {"norad_id": 66909, "name": "SILVERSAT", "group": "stations", "lat": -48.78297783690717, "lon": 5.719576630523691, "alt_km": 408.50654232743, "timestamp": "2025-12-27T04:40:44.253986+00:00", "meta": {"OBJECT_NAME": "SILVERSAT", "OBJECT_ID": "1998-067XV", "EPOCH": "2025-12-26T12:00:46.911744", "MEAN_MOTION": 15.53512588, "ECCENTRICITY": 0.0003773, "INCLINATION": 51.6312, "RA_OF_ASC_NODE": 73.9315, "ARG_OF_PERICENTER": 313.4073, "MEAN_ANOMALY": 46.6603, "EPHEMERIS_TYPE": 0, "CLASSIFICATION_TYPE": "U", "NORAD_CAT_ID": 66909, "ELEMENT_SET_NO": 999, "REV_AT_EPOCH": 375, "BSTAR": 0.0010737, "MEAN_MOTION_DOT": 0.00069652, "MEAN_MOTION_DDOT": 0}, "tle": {"line1": "1 66909U 98067XV  25360.50054296  .00069652  00000+0  10737-2 0  9994", "line2": "2 66909  51.6312  73.9315 0003773 313.4073  46.6603 15.53512588  3752"}}, "geometry": {"type": "Point", "coordinates": [5.719576630523691, -48.78297783690717]}}, {"type": "Feature", "properties": {"norad_id": 66910, "name": "1998-067XW", "group": "stations", "lat": -45.30828295217713, "lon": 17.236844739755803, "alt_km": 408.4253138340864, "timestamp": "2025-12-27T04:40:44.253996+00:00", "meta": {"OBJECT_NAME": "1998-067XW", "OBJECT_ID": "1998-067XW", "EPOCH": "2025-12-26T15:03:47.086848", "MEAN_MOTION": 15.53433211, "ECCENTRICITY": 0.0003702, "INCLINATION": 51.6299, "RA_OF_ASC_NODE": 73.2784, "ARG_OF_PERICENTER": 284.4746, "MEAN_ANOMALY": 75.5833, "EPHEMERIS_TYPE": 0, "CLASSIFICATION_TYPE": "U", "NORAD_CAT_ID": 66910, "ELEMENT_SET_NO": 999, "REV_AT_EPOCH": 377, "BSTAR": 0.0010495, "MEAN_MOTION_DOT": 0.00067854, "MEAN_MOTION_DDOT": 0}, "tle": {"line1": "1 66910U 98067XW  25360.62762832  .00067854  00000+0  10495-2 0  9994", "line2": "2 66910  51.6299  73.2784 0003702 284.4746  75.5833 15.53433211  3770"}}, "geometry": {"type": "Point", "coordinates": [17.236844739755803, -45.30828295217713]}}]}